[{"OBJECT_NAME":"STARLINK-3562","OBJECT_ID":"2022-022K","EPOCH":"2026-03-09T23:29:22.419744","MEAN_MOTION":15.08837729,"ECCENTRICITY":0.00013025,"INCLINATION":53.2181,"RA_OF_ASC_NODE":7.8249,"ARG_OF_PERICENTER":77.2749,"MEAN_ANOMALY":282.8389,"EPHEMERIS_TYPE":0,"CLASSIFICATION_TYPE":"U","NORAD_CAT_ID":51861,"ELEMENT_SET_NO":999,"REV_AT_EPOCH":22307,"BSTAR":0.00032739848,"MEAN_MOTION_DOT":4.926e-5,"MEAN_MOTION_DDOT":0},{"OBJECT_NAME":"LEMUR-2-MARHISYAM","OBJECT_ID":"2024-149BW","EPOCH":"2026-03-09T17:46:07.876416","MEAN_MOTION":15.0901552,"ECCENTRICITY":0.00035778,"INCLINATION":97.6912,"RA_OF_ASC_NODE":151.2662,"ARG_OF_PERICENTER":107.3271,"MEAN_ANOMALY":252.8349,"EPHEMERIS_TYPE":0,"CLASSIFICATION_TYPE":"U","NORAD_CAT_ID":60536,"ELEMENT_SET_NO":999,"REV_AT_EPOCH":8547,"BSTAR":0.00082973442,"MEAN_MOTION_DOT":0.00013075,"MEAN_MOTION_DDOT":0}]
